{
  "type": "FeatureCollection",
  "features": [
    {
      "type": "Feature",
      "properties": {
        "norad_id": 51444,
        "name": "CSG-2",
        "group": "resource",
        "lat": 54.95076631015582,
        "lon": -8.755199695210186,
        "alt_km": 616.5004023747388,
        "timestamp": "2025-12-04T09:47:37.180557+00:00",
        "meta_object_name": "CSG-2",
        "meta_object_id": "2022-008A",
        "meta_epoch": "2025-12-03T23:30:49.669056",
        "meta_mean_motion": 14.82150279,
        "meta_eccentricity": 0.00014795,
        "meta_inclination": 97.8807,
        "meta_ra_of_asc_node": 159.435,
        "meta_arg_of_pericenter": 89.5216,
        "meta_mean_anomaly": 270.6166,
        "meta_ephemeris_type": 0,
        "meta_classification_type": "U",
        "meta_norad_cat_id": 51444,
        "meta_element_set_no": 999,
        "meta_rev_at_epoch": 20767,
        "meta_bstar": 0.00014166266,
        "meta_mean_motion_dot": 1.076e-05,
        "meta_mean_motion_ddot": 0,
        "tle_line1": "1 51444U 22008A   25337.97974154  .00001076  00000+0  14166-3 0  9990",
        "tle_line2": "2 51444  97.8807 159.4350 0001479  89.5216 270.6166 14.82150279207677"
      },
      "geometry": {
        "type": "Point",
        "coordinates": [
          -8.755199695210186,
          54.95076631015582
        ]
      }
    },
    {
      "type": "Feature",
      "properties": {
        "norad_id": 52912,
        "name": "GAOFEN-12 03",
        "group": "resource",
        "lat": 61.38844654998113,
        "lon": 60.59726259142825,
        "alt_km": 623.5256537953683,
        "timestamp": "2025-12-04T09:47:37.180567+00:00",
        "meta_object_name": "GAOFEN-12 03",
        "meta_object_id": "2022-069A",
        "meta_epoch": "2025-12-03T21:54:10.483776",
        "meta_mean_motion": 14.79576499,
        "meta_eccentricity": 0.00023159,
        "meta_inclination": 97.8487,
        "meta_ra_of_asc_node": 225.4653,
        "meta_arg_of_pericenter": 75.0583,
        "meta_mean_anomaly": 285.0885,
        "meta_ephemeris_type": 0,
        "meta_classification_type": "U",
        "meta_norad_cat_id": 52912,
        "meta_element_set_no": 999,
        "meta_rev_at_epoch": 18573,
        "meta_bstar": 0.00030110527,
        "meta_mean_motion_dot": 2.204e-05,
        "meta_mean_motion_ddot": 0,
        "tle_line1": "1 52912U 22069A   25337.91262134  .00002204  00000+0  30111-3 0  9992",
        "tle_line2": "2 52912  97.8487 225.4653 0002315  75.0583 285.0885 14.79576499185731"
      },
      "geometry": {
        "type": "Point",
        "coordinates": [
          60.59726259142825,
          61.38844654998113
        ]
      }
    },
    {
      "type": "Feature",
      "properties": {
        "norad_id": 54754,
        "name": "SWOT",
        "group": "resource",
        "lat": -50.029760277111905,
        "lon": -76.96595156115254,
        "alt_km": 900.1356471607432,
        "timestamp": "2025-12-04T09:47:37.180578+00:00",
        "meta_object_name": "SWOT",
        "meta_object_id": "2022-173A",
        "meta_epoch": "2025-12-03T22:02:08.873664",
        "meta_mean_motion": 14.00172689,
        "meta_eccentricity": 3.233e-05,
        "meta_inclination": 77.6099,
        "meta_ra_of_asc_node": 298.8987,
        "meta_arg_of_pericenter": 138.1609,
        "meta_mean_anomaly": 221.9568,
        "meta_ephemeris_type": 0,
        "meta_classification_type": "U",
        "meta_norad_cat_id": 54754,
        "meta_element_set_no": 999,
        "meta_rev_at_epoch": 15182,
        "meta_bstar": 9.3238503e-05,
        "meta_mean_motion_dot": 1.35e-06,
        "meta_mean_motion_ddot": 0,
        "tle_line1": "1 54754U 22173A   25337.91815826  .00000135  00000+0  93239-4 0  9998",
        "tle_line2": "2 54754  77.6099 298.8987 0000323 138.1609 221.9568 14.00172689151820"
      },
      "geometry": {
        "type": "Point",
        "coordinates": [
          -76.96595156115254,
          -50.029760277111905
        ]
      }
    },
    {
      "type": "Feature",
      "properties": {
        "norad_id": 57654,
        "name": "GAOFEN-12 04",
        "group": "resource",
        "lat": -73.59668151084016,
        "lon": -77.51825549137956,
        "alt_km": 638.5615899519435,
        "timestamp": "2025-12-04T09:47:37.180588+00:00",
        "meta_object_name": "GAOFEN-12 04",
        "meta_object_id": "2023-123A",
        "meta_epoch": "2025-12-04T00:23:49.074144",
        "meta_mean_motion": 14.79658567,
        "meta_eccentricity": 0.00014521,
        "meta_inclination": 97.9117,
        "meta_ra_of_asc_node": 253.9064,
        "meta_arg_of_pericenter": 72.6388,
        "meta_mean_anomaly": 287.4983,
        "meta_ephemeris_type": 0,
        "meta_classification_type": "U",
        "meta_norad_cat_id": 57654,
        "meta_element_set_no": 999,
        "meta_rev_at_epoch": 12376,
        "meta_bstar": 0.00040182288,
        "meta_mean_motion_dot": 2.964e-05,
        "meta_mean_motion_ddot": 0,
        "tle_line1": "1 57654U 23123A   25338.01654021  .00002964  00000+0  40182-3 0  9996",
        "tle_line2": "2 57654  97.9117 253.9064 0001452  72.6388 287.4983 14.79658567123766"
      },
      "geometry": {
        "type": "Point",
        "coordinates": [
          -77.51825549137956,
          -73.59668151084016
        ]
      }
    },
    {
      "type": "Feature",
      "properties": {
        "norad_id": 59065,
        "name": "PARS 1",
        "group": "resource",
        "lat": -68.91223213551628,
        "lon": -30.963000897707627,
        "alt_km": 459.7883075612781,
        "timestamp": "2025-12-04T09:47:37.180598+00:00",
        "meta_object_name": "PARS 1",
        "meta_object_id": "2024-039Q",
        "meta_epoch": "2025-12-03T23:11:13.803072",
        "meta_mean_motion": 15.40671996,
        "meta_eccentricity": 0.00126749,
        "meta_inclination": 97.4619,
        "meta_ra_of_asc_node": 308.7158,
        "meta_arg_of_pericenter": 98.1239,
        "meta_mean_anomaly": 262.1445,
        "meta_ephemeris_type": 0,
        "meta_classification_type": "U",
        "meta_norad_cat_id": 59065,
        "meta_element_set_no": 999,
        "meta_rev_at_epoch": 9853,
        "meta_bstar": 0.00044077954,
        "meta_mean_motion_dot": 0.00017962,
        "meta_mean_motion_ddot": 0,
        "tle_line1": "1 59065U 24039Q   25337.96613198  .00017962  00000+0  44078-3 0  9996",
        "tle_line2": "2 59065  97.4619 308.7158 0012674  98.1239 262.1445 15.40671996 98534"
      },
      "geometry": {
        "type": "Point",
        "coordinates": [
          -30.963000897707627,
          -68.91223213551628
        ]
      }
    },
    {
      "type": "Feature",
      "properties": {
        "norad_id": 59371,
        "name": "RESURS-P 4",
        "group": "resource",
        "lat": -24.32242082177647,
        "lon": -71.79016240252368,
        "alt_km": 475.2480953038039,
        "timestamp": "2025-12-04T09:47:37.180608+00:00",
        "meta_object_name": "RESURS-P 4",
        "meta_object_id": "2024-061A",
        "meta_epoch": "2025-12-04T00:29:41.288928",
        "meta_mean_motion": 15.31977712,
        "meta_eccentricity": 0.00021206,
        "meta_inclination": 97.2532,
        "meta_ra_of_asc_node": 284.5303,
        "meta_arg_of_pericenter": 55.2531,
        "meta_mean_anomaly": 304.891,
        "meta_ephemeris_type": 0,
        "meta_classification_type": "U",
        "meta_norad_cat_id": 59371,
        "meta_element_set_no": 999,
        "meta_rev_at_epoch": 9387,
        "meta_bstar": 0.00023654265,
        "meta_mean_motion_dot": 7.228e-05,
        "meta_mean_motion_ddot": 0,
        "tle_line1": "1 59371U 24061A   25338.02061677  .00007228  00000+0  23654-3 0  9999",
        "tle_line2": "2 59371  97.2532 284.5303 0002120  55.2531 304.8910 15.31977712 93871"
      },
      "geometry": {
        "type": "Point",
        "coordinates": [
          -71.79016240252368,
          -24.32242082177647
        ]
      }
    },
    {
      "type": "Feature",
      "properties": {
        "norad_id": 59625,
        "name": "LEGION 1",
        "group": "resource",
        "lat": -51.294659497769985,
        "lon": 62.61121418440851,
        "alt_km": 521.4944763689009,
        "timestamp": "2025-12-04T09:47:37.180618+00:00",
        "meta_object_name": "LEGION 1",
        "meta_object_id": "2024-081A",
        "meta_epoch": "2025-12-03T21:21:07.189056",
        "meta_mean_motion": 15.16340015,
        "meta_eccentricity": 0.00046691,
        "meta_inclination": 97.5231,
        "meta_ra_of_asc_node": 52.6044,
        "meta_arg_of_pericenter": 352.6762,
        "meta_mean_anomaly": 7.4402,
        "meta_ephemeris_type": 0,
        "meta_classification_type": "U",
        "meta_norad_cat_id": 59625,
        "meta_element_set_no": 999,
        "meta_rev_at_epoch": 8793,
        "meta_bstar": 0.00051976347,
        "meta_mean_motion_dot": 0.00010021,
        "meta_mean_motion_ddot": 0,
        "tle_line1": "1 59625U 24081A   25337.88966654  .00010021  00000+0  51976-3 0  9998",
        "tle_line2": "2 59625  97.5231  52.6044 0004669 352.6762   7.4402 15.16340015 87933"
      },
      "geometry": {
        "type": "Point",
        "coordinates": [
          62.61121418440851,
          -51.294659497769985
        ]
      }
    }
  ]
}